OBJECT_NAME,OBJECT_ID,EPOCH,MEAN_MOTION,ECCENTRICITY,INCLINATION,RA_OF_ASC_NODE,ARG_OF_PERICENTER,MEAN_ANOMALY,EPHEMERIS_TYPE,CLASSIFICATION_TYPE,NORAD_CAT_ID,ELEMENT_SET_NO,REV_AT_EPOCH,BSTAR,MEAN_MOTION_DOT,MEAN_MOTION_DDOT
HAWK-6B,2023-011A,2026-06-13T23:16:33.648096,15.22907751,.0002926,40.4994,10.8375,341.5085,18.5617,0,U,55324,999,18735,.2325E-3,.5376E-4,0
HAWK-6C,2023-011C,2026-06-13T20:06:44.071776,15.22903526,.00036004,40.4992,8.4442,329.4805,30.5794,0,U,55326,999,18734,.19404628E-3,.4453E-4,0
HAWK-6A,2023-011D,2026-06-13T20:06:48.861792,15.22903337,.00034048,40.4994,10.0690,328.2172,31.8431,0,U,55327,999,18734,.21673741E-3,.4997E-4,0
HAWK-7A,2023-054P,2026-06-14T03:53:32.773632,15.27332385,.0004519,97.2708,52.5764,63.8123,296.3581,0,U,56191,999,17656,.21826E-3,.5772E-4,0
HAWK-7B,2023-054R,2026-06-13T23:10:23.373984,15.27324837,.0003779,97.2742,50.6486,78.3906,281.7758,0,U,56193,999,17653,.12729E-3,.3335E-4,0
HAWK-7C,2023-054Y,2026-06-14T03:53:15.849600,15.27332234,.0003877,97.2712,51.6092,66.3209,293.8436,0,U,56200,999,17656,.21702E-3,.5738E-4,0
